start=new Date('2022-09-02T00:00:00.000Z').valueOf();
sats=[{"INCLINATION":"53.0547","EPOCH":"2022-09-01T16:21:57.410208","APOAPSIS":"548.178","EPHEMERIS_TYPE":"0","CENTER_NAME":"EARTH","PERIOD":"95.592","MEAN_MOTION":"15.06401880","MEAN_ANOMALY":"273.3768","SEMIMAJOR_AXIS":"6925.343","NORAD_CAT_ID":"47582","TLE_LINE2":"2 47582  53.0547  30.2576 0001401  86.7381 273.3768 15.06401880 87110","MEAN_MOTION_DDOT":"0.0000000000000","COUNTRY_CODE":"US","RA_OF_ASC_NODE":"30.2576","REF_FRAME":"TEME","GP_ID":"211502174","TIME_SYSTEM":"UTC","LAUNCH_DATE":"2021-02-04","OBJECT_TYPE":"PAYLOAD","ELEMENT_SET_NO":"999","RCS_SIZE":"LARGE","ECCENTRICITY":"0.00014010","BSTAR":"0.00012904000000","CLASSIFICATION_TYPE":"U","REV_AT_EPOCH":"8711","SITE":"AFETR","TLE_LINE1":"1 47582U 21009AL  22244.68191447  .00001641  00000-0  12904-3 0  9993","ARG_OF_PERICENTER":"86.7381","DECAY_DATE":null,"OBJECT_NAME":"STARLINK-1986","OBJECT_ID":"2021-009AL","MEAN_MOTION_DOT":"0.00001641","FILE":"3554009","MEAN_ELEMENT_THEORY":"SGP4","PERIAPSIS":"546.238"},{"PERIOD":"95.592","CENTER_NAME":"EARTH","EPHEMERIS_TYPE":"0","APOAPSIS":"547.936","EPOCH":"2022-09-01T19:01:11.551584","INCLINATION":"53.0567","NORAD_CAT_ID":"47583","SEMIMAJOR_AXIS":"6925.325","MEAN_ANOMALY":"262.4264","MEAN_MOTION":"15.06407753","RA_OF_ASC_NODE":"29.7455","REF_FRAME":"TEME","COUNTRY_CODE":"US","MEAN_MOTION_DDOT":"0.0000000000000","TLE_LINE2":"2 47583  53.0567  29.7455 0001078  97.6847 262.4264 15.06407753 87137","OBJECT_TYPE":"PAYLOAD","LAUNCH_DATE":"2021-02-04","TIME_SYSTEM":"UTC","GP_ID":"211503426","ELEMENT_SET_NO":"999","CLASSIFICATION_TYPE":"U","BSTAR":"0.00002431200000","ECCENTRICITY":"0.00010780","RCS_SIZE":"LARGE","OBJECT_NAME":"STARLINK-1987","DECAY_DATE":null,"ARG_OF_PERICENTER":"97.6847","TLE_LINE1":"1 47583U 21009AM  22244.79249481  .00000081  00000-0  24312-4 0  9992","SITE":"AFETR","REV_AT_EPOCH":"8713","PERIAPSIS":"546.443","FILE":"3554009","MEAN_ELEMENT_THEORY":"SGP4","OBJECT_ID":"2021-009AM","MEAN_MOTION_DOT":"0.00000081"},{"OBJECT_TYPE":"PAYLOAD","TIME_SYSTEM":"UTC","LAUNCH_DATE":"2021-02-04","GP_ID":"211503176","COUNTRY_CODE":"US","RA_OF_ASC_NODE":"29.6417","REF_FRAME":"TEME","MEAN_MOTION_DDOT":"0.0000000000000","TLE_LINE2":"2 47585  53.0555  29.6417 0001357  92.9294 267.1850 15.06395856 87130","NORAD_CAT_ID":"47585","SEMIMAJOR_AXIS":"6925.361","MEAN_MOTION":"15.06395856","MEAN_ANOMALY":"267.1850","PERIOD":"95.592","EPHEMERIS_TYPE":"0","CENTER_NAME":"EARTH","APOAPSIS":"548.166","INCLINATION":"53.0555","EPOCH":"2022-09-01T19:38:21.409440","MEAN_ELEMENT_THEORY":"SGP4","FILE":"3554009","PERIAPSIS":"546.286","MEAN_MOTION_DOT":"0.00000383","OBJECT_ID":"2021-009AP","OBJECT_NAME":"STARLINK-1989","DECAY_DATE":null,"SITE":"AFETR","REV_AT_EPOCH":"8713","ARG_OF_PERICENTER":"92.9294","TLE_LINE1":"1 47585U 21009AP  22244.81830335  .00000383  00000-0  44613-4 0  9992","CLASSIFICATION_TYPE":"U","BSTAR":"0.00004461300000","ECCENTRICITY":"0.00013570","RCS_SIZE":"LARGE","ELEMENT_SET_NO":"999"},{"OBJECT_NAME":"STARLINK-1990","DECAY_DATE":null,"ARG_OF_PERICENTER":"85.7074","TLE_LINE1":"1 47586U 21009AQ  22244.60267409  .00000598  00000-0  59013-4 0  9994","SITE":"AFETR","REV_AT_EPOCH":"8682","PERIAPSIS":"546.272","MEAN_ELEMENT_THEORY":"SGP4","FILE":"3554009","MEAN_MOTION_DOT":"0.00000598","OBJECT_ID":"2021-009AQ","ELEMENT_SET_NO":"999","CLASSIFICATION_TYPE":"U","BSTAR":"0.00005901300000","ECCENTRICITY":"0.00013600","RCS_SIZE":"LARGE","RA_OF_ASC_NODE":"50.6031","REF_FRAME":"TEME","COUNTRY_CODE":"US","MEAN_MOTION_DDOT":"0.0000000000000","TLE_LINE2":"2 47586  53.0548  50.6031 0001360  85.7074 274.4070 15.06399842 86828","OBJECT_TYPE":"PAYLOAD","LAUNCH_DATE":"2021-02-04","TIME_SYSTEM":"UTC","GP_ID":"211502425","PERIOD":"95.592","CENTER_NAME":"EARTH","EPHEMERIS_TYPE":"0","APOAPSIS":"548.156","EPOCH":"2022-09-01T14:27:51.041376","INCLINATION":"53.0548","NORAD_CAT_ID":"47586","SEMIMAJOR_AXIS":"6925.349","MEAN_ANOMALY":"274.4070","MEAN_MOTION":"15.06399842"},{"INCLINATION":"53.0561","EPOCH":"2022-09-01T15:56:45.162240","APOAPSIS":"548.228","CENTER_NAME":"EARTH","EPHEMERIS_TYPE":"0","PERIOD":"95.592","MEAN_ANOMALY":"274.7980","MEAN_MOTION":"15.06399119","SEMIMAJOR_AXIS":"6925.351","NORAD_CAT_ID":"47587","TLE_LINE2":"2 47587  53.0561  20.3325 0001461  85.3176 274.7980 15.06399119 87253","MEAN_MOTION_DDOT":"0.0000000000000","RA_OF_ASC_NODE":"20.3325","REF_FRAME":"TEME","COUNTRY_CODE":"US","GP_ID":"211502675","LAUNCH_DATE":"2021-02-04","TIME_SYSTEM":"UTC","OBJECT_TYPE":"PAYLOAD","ELEMENT_SET_NO":"999","RCS_SIZE":"LARGE","BSTAR":"0.00012420000000","ECCENTRICITY":"0.00014610","CLASSIFICATION_TYPE":"U","TLE_LINE1":"1 47587U 21009AR  22244.66441160  .00001569  00000-0  12420-3 0  9998","ARG_OF_PERICENTER":"85.3176","SITE":"AFETR","REV_AT_EPOCH":"8725","DECAY_DATE":null,"OBJECT_NAME":"STARLINK-1991","MEAN_MOTION_DOT":"0.00001569","OBJECT_ID":"2021-009AR","PERIAPSIS":"546.204","MEAN_ELEMENT_THEORY":"SGP4","FILE":"3554009"},{"ELEMENT_SET_NO":"999","BSTAR":"0.00003851600000","ECCENTRICITY":"0.00014100","CLASSIFICATION_TYPE":"U","RCS_SIZE":"LARGE","OBJECT_NAME":"STARLINK-1993","SITE":"AFETR","REV_AT_EPOCH":"8713","ARG_OF_PERICENTER":"73.9238","TLE_LINE1":"1 47588U 21009AS  22244.78881516  .00000292  00000-0  38516-4 0  9992","DECAY_DATE":null,"MEAN_MOTION_DOT":"0.00000292","OBJECT_ID":"2021-009AS","FILE":"3554009","MEAN_ELEMENT_THEORY":"SGP4","PERIAPSIS":"546.256","EPHEMERIS_TYPE":"0","CENTER_NAME":"EARTH","PERIOD":"95.593","INCLINATION":"53.0552","EPOCH":"2022-09-01T18:55:53.629824","APOAPSIS":"548.209","SEMIMAJOR_AXIS":"6925.367","NORAD_CAT_ID":"47588","MEAN_MOTION":"15.06393881","MEAN_ANOMALY":"286.1906","COUNTRY_CODE":"US","RA_OF_ASC_NODE":"29.7550","REF_FRAME":"TEME","TLE_LINE2":"2 47588  53.0552  29.7550 0001410  73.9238 286.1906 15.06393881 87135","MEAN_MOTION_DDOT":"0.0000000000000","OBJECT_TYPE":"PAYLOAD","GP_ID":"211502926","TIME_SYSTEM":"UTC","LAUNCH_DATE":"2021-02-04"},{"RCS_SIZE":"LARGE","BSTAR":"0.00006751500000","ECCENTRICITY":"0.00015360","CLASSIFICATION_TYPE":"U","ELEMENT_SET_NO":"999","MEAN_MOTION_DOT":"0.00000724","OBJECT_ID":"2021-009AT","MEAN_ELEMENT_THEORY":"SGP4","FILE":"3554009","PERIAPSIS":"546.149","REV_AT_EPOCH":"8712","SITE":"AFETR","ARG_OF_PERICENTER":"76.2442","TLE_LINE1":"1 47589U 21009AT  22244.74089789  .00000724  00000-0  67515-4 0  9992","DECAY_DATE":null,"OBJECT_NAME":"STARLINK-1994","MEAN_MOTION":"15.06400300","MEAN_ANOMALY":"283.8718","SEMIMAJOR_AXIS":"6925.348","NORAD_CAT_ID":"47589","INCLINATION":"53.0560","EPOCH":"2022-09-01T17:46:53.577696","APOAPSIS":"548.276","EPHEMERIS_TYPE":"0","CENTER_NAME":"EARTH","PERIOD":"95.592","GP_ID":"211503677","TIME_SYSTEM":"UTC","LAUNCH_DATE":"2021-02-04","OBJECT_TYPE":"PAYLOAD","TLE_LINE2":"2 47589  53.0560  29.9860 0001536  76.2442 283.8718 15.06400300 87122","MEAN_MOTION_DDOT":"0.0000000000000","COUNTRY_CODE":"US","RA_OF_ASC_NODE":"29.9860","REF_FRAME":"TEME"},{"MEAN_ANOMALY":"280.7876","MEAN_MOTION":"15.06335812","NORAD_CAT_ID":"47590","SEMIMAJOR_AXIS":"6925.545","APOAPSIS":"547.882","EPOCH":"2022-09-01T14:22:33.138624","INCLINATION":"53.0550","PERIOD":"95.596","CENTER_NAME":"EARTH","EPHEMERIS_TYPE":"0","LAUNCH_DATE":"2021-02-04","TIME_SYSTEM":"UTC","GP_ID":"211501925","OBJECT_TYPE":"PAYLOAD","MEAN_MOTION_DDOT":"0.0000000000000","TLE_LINE2":"2 47590  53.0550  50.6285 0000681  79.3190 280.7876 15.06335812 86821","RA_OF_ASC_NODE":"50.6285","REF_FRAME":"TEME","COUNTRY_CODE":"US","RCS_SIZE":"LARGE","CLASSIFICATION_TYPE":"U","BSTAR":"0.00102940000000","ECCENTRICITY":"0.00006810","ELEMENT_SET_NO":"999","PERIAPSIS":"546.939","MEAN_ELEMENT_THEORY":"SGP4","FILE":"3554009","MEAN_MOTION_DOT":"0.00015058","OBJECT_ID":"2021-009AU","DECAY_DATE":null,"TLE_LINE1":"1 47590U 21009AU  22244.59899466  .00015058  00000-0  10294-2 0  9994","ARG_OF_PERICENTER":"79.3190","REV_AT_EPOCH":"8682","SITE":"AFETR","OBJECT_NAME":"STARLINK-1995"},{"CLASSIFICATION_TYPE":"U","BSTAR":"0.00009808800000","ECCENTRICITY":"0.00013940","RCS_SIZE":"LARGE","ELEMENT_SET_NO":"999","FILE":"3554009","MEAN_ELEMENT_THEORY":"SGP4","PERIAPSIS":"546.221","OBJECT_ID":"2021-009AV","MEAN_MOTION_DOT":"0.00001180","OBJECT_NAME":"STARLINK-1996","DECAY_DATE":null,"SITE":"AFETR","REV_AT_EPOCH":"8711","TLE_LINE1":"1 47591U 21009AV  22244.67085238  .00001180  00000-0  98088-4 0  9998","ARG_OF_PERICENTER":"89.5580","NORAD_CAT_ID":"47591","SEMIMAJOR_AXIS":"6925.321","MEAN_MOTION":"15.06408899","MEAN_ANOMALY":"270.5569","PERIOD":"95.592","EPHEMERIS_TYPE":"0","CENTER_NAME":"EARTH","APOAPSIS":"548.152","EPOCH":"2022-09-01T16:06:01.645632","INCLINATION":"53.0548","OBJECT_TYPE":"PAYLOAD","TIME_SYSTEM":"UTC","LAUNCH_DATE":"2021-02-04","GP_ID":"211502175","COUNTRY_CODE":"US","RA_OF_ASC_NODE":"30.3001","REF_FRAME":"TEME","MEAN_MOTION_DDOT":"0.0000000000000","TLE_LINE2":"2 47591  53.0548  30.3001 0001394  89.5580 270.5569 15.06408899 87113"},{"ELEMENT_SET_NO":"999","RCS_SIZE":"LARGE","CLASSIFICATION_TYPE":"U","BSTAR":"-0.00006045700000","ECCENTRICITY":"0.00013380","DECAY_DATE":null,"REV_AT_EPOCH":"8685","SITE":"AFETR","TLE_LINE1":"1 47592U 21009AW  22244.83488914 -.00001182  00000-0 -60457-4 0  9998","ARG_OF_PERICENTER":"79.3512","OBJECT_NAME":"STARLINK-1997","FILE":"3554009","MEAN_ELEMENT_THEORY":"SGP4","PERIAPSIS":"546.305","OBJECT_ID":"2021-009AW","MEAN_MOTION_DOT":"-0.00001182","APOAPSIS":"548.158","EPOCH":"2022-09-01T20:02:14.421696","INCLINATION":"53.0555","PERIOD":"95.593","EPHEMERIS_TYPE":"0","CENTER_NAME":"EARTH","MEAN_MOTION":"15.06394250","MEAN_ANOMALY":"280.7628","NORAD_CAT_ID":"47592","SEMIMAJOR_AXIS":"6925.366","MEAN_MOTION_DDOT":"0.0000000000000","TLE_LINE2":"2 47592  53.0555  49.5673 0001338  79.3512 280.7628 15.06394250 86853","COUNTRY_CODE":"US","REF_FRAME":"TEME","RA_OF_ASC_NODE":"49.5673","TIME_SYSTEM":"UTC","LAUNCH_DATE":"2021-02-04","GP_ID":"211503427","OBJECT_TYPE":"PAYLOAD"}];
